NOAA 15                 
1 25338U 98030A   24297.50991589  .00000386  00000+0  17717-3 0  9993
2 25338  98.5597 321.9170 0009377 314.0975  45.9433 14.26759360375730
NOAA 18                 
1 28654U 05018A   24297.49040390  .00000424  00000+0  24903-3 0  9992
2 28654  98.8650  13.3410 0014990  62.1805 298.0884 14.13382327  1385
NOAA 19                 
1 33591U 09005A   24297.46030895  .00000378  00000+0  22613-3 0  9998
2 33591  99.0319 354.5307 0012831 291.8023  68.1783 14.13165235809743
METOP-B                 
1 38771U 12049A   24297.49165328  .00000307  00000+0  15961-3 0  9998
2 38771  98.6126 351.7403 0001443  92.5675 267.5668 14.21552828627776
SARAL                   
1 39086U 13009A   24297.32298880  .00000319  00000+0  13388-3 0  9991
2 39086  98.5512 120.6992 0000819 264.8255  95.2836 14.32549364609422
METOP-C                 
1 43689U 18087A   24297.46012144  .00000321  00000+0  16664-3 0  9991
2 43689  98.7085 355.1417 0002538  88.4344 271.7124 14.21482720309348
ANGELS                  
1 44876U 19092D   24297.51894427  .00014402  00000+0  48942-3 0  9994
2 44876  97.4694 126.5327 0008058 219.8266 140.2384 15.30547186268964
OTB-3-GAZELLE           
1 54023U 22127A   24297.54185893  .00000404  00000+0  13546-3 0  9994
2 54023  98.3538 289.0811 0012709 199.1261 160.9453 14.42276383107623
EOS-6 (OCEANSAT-3)      
1 54361U 22158A   24297.49628232  .00002127  00000+0  59760-3 0  9998
2 54361  98.3539  32.8046 0001302 103.3703 256.7634 14.46929856100822
